$$SOE
2460154.500000000, A.D. 2023-Jul-29 00:00:00.0000, -1.808801540660962E+08, -3.122067092645752E+08, 6.377373875263748E+07,
2460161.500000000, A.D. 2023-Aug-05 00:00:00.0000, -1.707715365021574E+08, -3.185081389562929E+08, 6.372090515357645E+07,
2460168.500000000, A.D. 2023-Aug-12 00:00:00.0000, -1.604952343765118E+08, -3.244967468279912E+08, 6.360548573225048E+07,
2460175.500000000, A.D. 2023-Aug-19 00:00:00.0000, -1.500620977075851E+08, -3.301681792650999E+08, 6.342789314279144E+07,
2460182.500000000, A.D. 2023-Aug-26 00:00:00.0000, -1.394830562509591E+08, -3.355185010212471E+08, 6.318860960865067E+07,
2460189.500000000, A.D. 2023-Sep-02 00:00:00.0000, -1.287691003407226E+08, -3.405441940347657E+08, 6.288818488422671E+07,
2460196.500000000, A.D. 2023-Sep-09 00:00:00.0000, -1.179312621170639E+08, -3.452421553553408E+08, 6.252723409589204E+07,
2460203.500000000, A.D. 2023-Sep-16 00:00:00.0000, -1.069805970292282E+08, -3.496096942857651E+08, 6.210643545499472E+07,
2460210.500000000, A.D. 2023-Sep-23 00:00:00.0000, -9.592816524973598E+07, -3.536445285017920E+08, 6.162652784063029E+07,
2460217.500000000, A.D. 2023-Sep-30 00:00:00.0000, -8.478501338644870E+07, -3.573447780113339E+08, 6.108830839291967E+07,
2460224.500000000, A.D. 2023-Oct-07 00:00:00.0000, -7.356215888737144E+07, -3.607089575487986E+08, 6.049263029998256E+07,
2460231.500000000, A.D. 2023-Oct-14 00:00:00.0000, -6.227057613300887E+07, -3.637359707729203E+08, 5.984040042383680E+07,
2460238.500000000, A.D. 2023-Oct-21 00:00:00.0000, -5.092118101771187E+07, -3.664251047243814E+08, 5.913257661205895E+07,
2460245.500000000, A.D. 2023-Oct-28 00:00:00.0000, -3.952481547065379E+07, -3.687760223428214E+08, 5.837016502254984E+07,
2460252.500000000, A.D. 2023-Nov-04 00:00:00.0000, -2.809223318782736E+07, -3.707887538719310E+08, 5.755421752423085E+07,
2460259.500000000, A.D. 2023-Nov-11 00:00:00.0000, -1.663408641377300E+07, -3.724636878098332E+08, 5.668582911865932E+07,
2460266.500000000, A.D. 2023-Nov-18 00:00:00.0000, -5.160913564951370E+06, -3.738015615252627E+08, 5.576613536662373E+07,
2460273.500000000, A.D. 2023-Nov-25 00:00:00.0000, 6.316872371785299E+06, -3.748034515720083E+08, 5.479630982351962E+07,
2460280.500000000, A.D. 2023-Dec-02 00:00:00.0000, 1.778899469245746E+07, -3.754707637673764E+08, 5.377756148826815E+07,
2460287.500000000, A.D. 2023-Dec-09 00:00:00.0000, 2.924532316114923E+07, -3.758052231478428E+08, 5.271113226200229E+07,
2460294.500000000, A.D. 2023-Dec-16 00:00:00.0000, 4.067588381978505E+07, -3.758088638421837E+08, 5.159829439891037E+07,
2460301.500000000, A.D. 2023-Dec-23 00:00:00.0000, 5.207086877879630E+07, -3.754840182249914E+08, 5.044034798028141E+07,
2460308.500000000, A.D. 2023-Dec-30 00:00:00.0000, 6.342064465909572E+07, -3.748333043483263E+08, 4.923861862612569E+07,
2460315.500000000, A.D. 2024-Jan-06 00:00:00.0000, 7.471575792676626E+07, -3.738596140550689E+08, 4.799445541845502E+07,
2460322.500000000, A.D. 2024-Jan-13 00:00:00.0000, 8.594694031107298E+07, -3.725661036215936E+08, 4.670922860142092E+07,
2460329.500000000, A.D. 2024-Jan-20 00:00:00.0000, 9.710511554966535E+07, -3.709561838859891E+08, 4.538432720226501E+07,
2460336.500000000, A.D. 2024-Jan-27 00:00:00.0000, 1.081814054534338E+08, -3.690335092482355E+08, 4.402115681617202E+07,
2460343.500000000, A.D. 2024-Feb-03 00:00:00.0000, 1.191671348851742E+08, -3.668019665260980E+08, 4.262113751972613E+07,
2460350.500000000, A.D. 2024-Feb-10 00:00:00.0000, 1.300538359533201E+08, -3.642656639902596E+08, 4.118570186610641E+07,
2460357.500000000, A.D. 2024-Feb-17 00:00:00.0000, 1.408332515840240E+08, -3.614289206006644E+08, 3.971629295180604E+07,
2460364.500000000, A.D. 2024-Feb-24 00:00:00.0000, 1.514973385322205E+08, -3.582962554561213E+08, 3.821436255396119E+07,
2460371.500000000, A.D. 2024-Mar-02 00:00:00.0000, 1.620382698858898E+08, -3.548723775130243E+08, 3.668136933338962E+07,
2460378.500000000, A.D. 2024-Mar-09 00:00:00.0000, 1.724484372276296E+08, -3.511621756561146E+08, 3.511877708541773E+07,
2460385.500000000, A.D. 2024-Mar-16 00:00:00.0000, 1.827204528745849E+08, -3.471707089412217E+08, 3.352805301799044E+07,
2460392.500000000, A.D. 2024-Mar-23 00:00:00.0000, 1.928471521197505E+08, -3.429031959153998E+08, 3.191066615650913E+07,
2460399.500000000, A.D. 2024-Mar-30 00:00:00.0000, 2.028215932613776E+08, -3.383650030533929E+08, 3.026808607790218E+07,
2460406.500000000, A.D. 2024-Apr-06 00:00:00.0000, 2.126370557055753E+08, -3.335616356886702E+08, 2.860178167444268E+07,
2460413.500000000, A.D. 2024-Apr-13 00:00:00.0000, 2.222870397229740E+08, -3.284987306141946E+08, 2.691321968969290E+07,
2460420.500000000, A.D. 2024-Apr-20 00:00:00.0000, 2.317652669352467E+08, -3.231820476890640E+08, 2.520386333260143E+07,
2460427.500000000, A.D. 2024-Apr-27 00:00:00.0000, 2.410656800392647E+08, -3.176174610226579E+08, 2.347517106224172E+07,
2460434.500000000, A.D. 2024-May-04 00:00:00.0000, 2.501824418799253E+08, -3.118109504458479E+08, 2.172859547605787E+07,
2460441.500000000, A.D. 2024-May-11 00:00:00.0000, 2.591099341326707E+08, -3.057685933742446E+08, 1.996558226946819E+07,
2460448.500000000, A.D. 2024-May-18 00:00:00.0000, 2.678427556999728E+08, -2.994965570431843E+08, 1.818756925899173E+07,
2460455.500000000, A.D. 2024-May-25 00:00:00.0000, 2.763757208679038E+08, -2.930010911214027E+08, 1.639598546387343E+07,
2460462.500000000, A.D. 2024-Jun-01 00:00:00.0000, 2.847038573030468E+08, -2.862885207588220E+08, 1.459225023372124E+07,
2460469.500000000, A.D. 2024-Jun-08 00:00:00.0000, 2.928224041565472E+08, -2.793652400878051E+08, 1.277777239546782E+07,
2460476.500000000, A.D. 2024-Jun-15 00:00:00.0000, 3.007268106961294E+08, -2.722377056295217E+08, 1.095394942577048E+07,
2460483.500000000, A.D. 2024-Jun-22 00:00:00.0000, 3.084127344813989E+08, -2.649124284286117E+08, 9.122166835505173E+06,
2460490.500000000, A.D. 2024-Jun-29 00:00:00.0000, 3.158760369779779E+08, -2.573959667344245E+08, 7.283797810102105E+06,
2460497.500000000, A.D. 2024-Jul-06 00:00:00.0000, 3.231127792702614E+08, -2.496949216937838E+08, 5.440202658629492E+06,
2460504.500000000, A.D. 2024-Jul-13 00:00:00.0000, 3.301192198379021E+08, -2.418159332240219E+08, 3.592728121274769E+06,
2460511.500000000, A.D. 2024-Jul-20 00:00:00.0000, 3.368918124266111E+08, -2.337656749118910E+08, 1.742706809106588E+06,
2460518.500000000, A.D. 2024-Jul-27 00:00:00.0000, 3.434272033720093E+08, -2.255508488922685E+08, -1.085432443741411E+05,
2460525.500000000, A.D. 2024-Aug-03 00:00:00.0000, 3.497222286626695E+08, -2.171781810753931E+08, -1.959718977971762E+06,
2460532.500000000, A.D. 2024-Aug-10 00:00:00.0000, 3.557739109201186E+08, -2.086544167203016E+08, -3.809532661858022E+06,
2460539.500000000, A.D. 2024-Aug-17 00:00:00.0000, 3.615794563539326E+08, -1.999863163255015E+08, -5.656712225981742E+06,
2460546.500000000, A.D. 2024-Aug-24 00:00:00.0000, 3.671362517291306E+08, -1.911806518513770E+08, -7.500001564633310E+06,
2460553.500000000, A.D. 2024-Aug-31 00:00:00.0000, 3.724418614692229E+08, -1.822442033269880E+08, -9.338160835182570E+06,
2460560.500000000, A.D. 2024-Sep-07 00:00:00.0000, 3.774940252675797E+08, -1.731837557042167E+08, -1.116996677641498E+07,
2460567.500000000, A.D. 2024-Sep-14 00:00:00.0000, 3.822906563018845E+08, -1.640060949522609E+08, -1.299421297478447E+07,
2460574.500000000, A.D. 2024-Sep-21 00:00:00.0000, 3.868298380345850E+08, -1.547180029718171E+08, -1.480970986057474E+07,
2460581.500000000, A.D. 2024-Sep-28 00:00:00.0000, 3.911098191206865E+08, -1.453262545504144E+08, -1.661528465515660E+07,
2460588.500000000, A.D. 2024-Oct-05 00:00:00.0000, 3.951290100981079E+08, -1.358376163489485E+08, -1.840978160800650E+07,
2460595.500000000, A.D. 2024-Oct-12 00:00:00.0000, 3.988859815064988E+08, -1.262588449304632E+08, -2.019206224883294E+07,
2460602.500000000, A.D. 2024-Oct-19 00:00:00.0000, 4.023794616906544E+08, -1.165966840944601E+08, -2.196100551819515E+07,
2460609.500000000, A.D. 2024-Oct-26 00:00:00.0000, 4.056083342621416E+08, -1.068578623109638E+08, -2.371550784095029E+07,
2460616.500000000, A.D. 2024-Nov-02 00:00:00.0000, 4.085716354815308E+08, -9.704909039542370E+07, -2.545448318000249E+07,
2460623.500000000, A.D. 2024-Nov-09 00:00:00.0000, 4.112685516622294E+08, -8.717705939656827E+07, -2.717686307918644E+07,
2460630.500000000, A.D. 2024-Nov-16 00:00:00.0000, 4.136984166252913E+08, -7.724843869020158E+07, -2.888159669920735E+07,
2460637.500000000, A.D. 2024-Nov-23 00:00:00.0000, 4.158607092539676E+08, -6.726987432251081E+07, -3.056765085644181E+07,
2460644.500000000, A.D. 2024-Nov-30 00:00:00.0000, 4.177550513556308E+08, -5.724798763881524E+07, -3.223401008834783E+07,
2460651.500000000, A.D. 2024-Dec-07 00:00:00.0000, 4.193812062479869E+08, -4.718937376803210E+07, -3.387967675031056E+07,
2460658.500000000, A.D. 2024-Dec-14 00:00:00.0000, 4.207390773815127E+08, -3.710059872703256E+07, -3.550367098123163E+07,
2460665.500000000, A.D. 2024-Dec-21 00:00:00.0000, 4.218287046862139E+08, -2.698819637603387E+07, -3.710503042759118E+07,
2460672.500000000, A.D. 2024-Dec-28 00:00:00.0000, 4.226502606207448E+08, -1.685866818700606E+07, -3.868281015081830E+07,
2460679.500000000, A.D. 2025-Jan-04 00:00:00.0000, 4.232040485226620E+08, -6.718483443441644E+06, -4.023608276312304E+07,
2460686.500000000, A.D. 2025-Jan-11 00:00:00.0000, 4.234905014401020E+08, 3.425921794283716E+06, -4.176393849001464E+07,
2460693.500000000, A.D. 2025-Jan-18 00:00:00.0000, 4.235101805293491E+08, 1.356814604452066E+07, -4.326548515135328E+07,
2460700.500000000, A.D. 2025-Jan-25 00:00:00.0000, 4.232637732621057E+08, 2.370182361181930E+07, -4.473984812278251E+07,
2460707.500000000, A.D. 2025-Feb-01 00:00:00.0000, 4.227520916316909E+08, 3.382062562194998E+07, -4.618617029800080E+07,
2460714.500000000, A.D. 2025-Feb-08 00:00:00.0000, 4.219760704162364E+08, 4.391826091016233E+07, -4.760361205619669E+07,
2460721.500000000, A.D. 2025-Feb-15 00:00:00.0000, 4.209367655275453E+08, 5.398847674866869E+07, -4.899135123953366E+07,
$$EOE